OBJECT_NAME,OBJECT_ID,EPOCH,MEAN_MOTION,ECCENTRICITY,INCLINATION,RA_OF_ASC_NODE,ARG_OF_PERICENTER,MEAN_ANOMALY,EPHEMERIS_TYPE,CLASSIFICATION_TYPE,NORAD_CAT_ID,ELEMENT_SET_NO,REV_AT_EPOCH,BSTAR,MEAN_MOTION_DOT,MEAN_MOTION_DDOT
SAUDISAT 1C (SO-50),2002-058C,2026-06-11T13:24:05.207040,14.83034770,.00754033,64.5506,146.4007,263.5157,95.7360,0,U,27607,999,26362,.12536422E-3,.916E-5,0
SAUDISAT 2,2004-025F,2026-06-11T14:27:36.691200,14.56680728,.00238217,98.5507,162.4401,316.1423,43.7882,0,U,28371,999,16493,.64134789E-4,.237E-5,0
SAUDISAT 3,2007-012B,2026-06-11T09:51:06.681600,14.71422228,.001338,98.1454,112.8073,243.7918,116.1914,0,U,31118,999,2689,.40515343E-4,.2E-5,0
PISAT,2016-059B,2026-06-11T13:24:15.600960,14.68974238,.00279565,97.8179,163.2532,221.2985,138.6107,0,U,41784,999,51891,.14650373E-3,.816E-5,0
FLYING LAPTOP,2017-042G,2026-06-11T15:40:08.256576,15.01109878,.00193265,97.4660,318.3997,139.6985,220.5677,0,U,42831,999,48562,.24442084E-3,.3083E-4,0
SALSAT,2020-068K,2026-06-11T14:03:12.574944,15.29719030,.00085257,97.8849,165.3093,331.4069,28.6701,0,U,46495,999,31450,.24314384E-3,.6923E-4,0
